NORAD_CAT_ID,OBJECT_NAME,OBJECT_TYPE,EPOCH,MEAN_MOTION,ECCENTRICITY,INCLINATION,RA_OF_ASC_NODE,ARG_OF_PERICENTER,MEAN_ANOMALY,BSTAR,MEAN_MOTION_DOT,MEAN_MOTION_DDOT,TLE_LINE0,TLE_LINE1,TLE_LINE2,SEMIMAJOR_AXIS,PERIOD,APOGEE,PERIGEE,DECAYED
55664.0,STARLINK-5480,PAYLOAD,2024-01-27 05:14:15,14.98332329,0.0002545,70.0013,312.2196,258.724,101.3633,0.00011335,1.26e-05,0.0,0 STARLINK-5480,1 55664U 23021AN  24027.21824042  .00001260  00000-0  11335-3 0  9997,2 55664  70.0013 312.2196 0002545 258.7240 101.3633 14.98332329 53578,6950.186,96.107,573.82,570.282,0.0
55664.0,STARLINK-5480,PAYLOAD,2024-01-27 21:15:37,14.98309303,0.0002534,70.0013,310.5365,249.123,110.9658,0.00038592,4.512e-05,0.0,0 STARLINK-5480,1 55664U 23021AN  24027.88584537  .00004512  00000-0  38592-3 0  9999,2 55664  70.0013 310.5365 0002534 249.1230 110.9658 14.98309303 53678,6950.257,96.108,573.883,570.361,0.0
55664.0,STARLINK-5480,PAYLOAD,2024-01-28 03:40:08,14.98331496,0.0002523,70.0012,309.8635,253.8371,106.251,4.1082e-05,3.97e-06,0.0,0 STARLINK-5480,1 55664U 23021AN  24028.15288157  .00000397  00000-0  41082-4 0  9995,2 55664  70.0012 309.8635 0002523 253.8371 106.2510 14.98331496 53419,6950.188,96.107,573.807,570.3,0.0
55664.0,STARLINK-5480,PAYLOAD,2024-01-28 05:16:17,14.98331533,0.0002518,70.0012,309.6951,254.9762,105.1119,3.9857e-05,3.83e-06,0.0,0 STARLINK-5480,1 55664U 23021AN  24028.21964157  .00000383  00000-0  39857-4 0  9995,2 55664  70.0012 309.6951 0002518 254.9762 105.1119 14.98331533 53727,6950.188,96.107,573.803,570.303,0.0
55664.0,STARLINK-5480,PAYLOAD,2024-01-28 19:41:28,14.98340406,0.0002552,70.0009,308.18,257.875,102.2123,0.00011383,1.266e-05,0.0,0 STARLINK-5480,1 55664U 23021AN  24028.82047175  .00001266  00000-0  11383-3 0  9998,2 55664  70.0009 308.1800 0002552 257.8750 102.2123 14.98340406 53516,6950.161,96.106,573.799,570.252,0.0
55664.0,STARLINK-5480,PAYLOAD,2024-01-28 22:53:44,14.98342044,0.0002525,70.0011,307.8432,257.6988,102.3888,0.00013057,1.466e-05,0.0,0 STARLINK-5480,1 55664U 23021AN  24028.95398949  .00001466  00000-0  13057-3 0  9992,2 55664  70.0011 307.8432 0002525 257.6988 102.3888 14.98342044 53831,6950.156,96.106,573.776,570.266,0.0
55664.0,STARLINK-5480,PAYLOAD,2024-01-29 03:42:08,14.98349043,0.0002403,70.0012,307.3382,255.1789,104.9104,0.00021135,2.431e-05,0.0,0 STARLINK-5480,1 55664U 23021AN  24029.15426128  .00002431  00000-0  21135-3 0  9995,2 55664  70.0012 307.3382 0002403 255.1789 104.9104 14.98349043 53563,6950.134,96.106,573.669,570.329,0.0
55664.0,STARLINK-5480,PAYLOAD,2024-01-29 18:07:21,14.98315486,0.0001927,70.004,305.8259,227.9964,132.1031,0.00037973,4.439e-05,0.0,0 STARLINK-5480,1 55664U 23021AN  24029.75511240  .00004439  00000-0  37973-3 0  9998,2 55664  70.0040 305.8259 0001927 227.9964 132.1031 14.98315486 53658,6950.238,96.108,573.442,570.763,0.0
55664.0,STARLINK-5480,PAYLOAD,2024-01-30 03:44:10,14.98325623,0.0002916,70.0001,304.813,264.472,95.6106,-5.4208e-05,-7.4e-06,0.0,0 STARLINK-5480,1 55664U 23021AN  24030.15568065 -.00000740  00000-0 -54208-4 0  9995,2 55664  70.0001 304.8130 0002916 264.4720  95.6106 14.98325623 53714,6950.206,96.107,574.098,570.045,0.0
55664.0,STARLINK-5480,PAYLOAD,2024-01-30 22:57:47,14.98333599,0.000289,70.0002,302.7926,265.1451,94.9378,-0.00015142,-1.899e-05,0.0,0 STARLINK-5480,1 55664U 23021AN  24030.95679868 -.00001899  00000-0 -15142-3 0  9996,2 55664  70.0002 302.7926 0002890 265.1451  94.9378 14.98333599 54136,6950.182,96.107,574.055,570.038,0.0
55664.0,STARLINK-5480,PAYLOAD,2024-01-31 03:46:11,14.98334003,0.0002421,70.0013,302.2883,253.1419,106.9474,-0.00016009,-2.003e-05,0.0,0 STARLINK-5480,1 55664U 23021AN  24031.15707801 -.00002003  00000-0 -16009-3 0  9999,2 55664  70.0013 302.2883 0002421 253.1419 106.9474 14.98334003 53867,6950.181,96.107,573.728,570.363,0.0
55664.0,STARLINK-5480,PAYLOAD,2024-01-31 16:35:16,14.9832283,0.0002813,70.0004,300.9415,262.6409,97.443,0.0001131,1.257e-05,0.0,0 STARLINK-5480,1 55664U 23021AN  24031.69115769  .00001257  00000-0  11310-3 0  9992,2 55664  70.0004 300.9415 0002813 262.6409  97.4430 14.98322830 54246,6950.215,96.107,574.035,570.125,0.0
55664.0,STARLINK-5480,PAYLOAD,2024-02-01 03:48:12,14.98323627,0.0002813,70.0003,299.7632,262.7535,97.3304,0.00010648,1.178e-05,0.0,0 STARLINK-5480,1 55664U 23021AN  24032.15847961  .00001178  00000-0  10648-3 0  9995,2 55664  70.0003 299.7632 0002813 262.7535  97.3304 14.98323627 54011,6950.213,96.107,574.033,570.123,0.0
55664.0,STARLINK-5480,PAYLOAD,2024-02-02 03:50:13,14.98332374,0.0002864,70.0001,297.2394,261.4356,98.6478,7.6523e-05,8.2e-06,0.0,0 STARLINK-5480,1 55664U 23021AN  24033.15987624  .00000820  00000-0  76523-4 0  9995,2 55664  70.0001 297.2394 0002864 261.4356  98.6478 14.98332374 54161,6950.186,96.107,574.041,570.06,0.0
55664.0,STARLINK-5480,PAYLOAD,2024-02-02 21:27:41,14.98329334,0.0003455,69.9987,295.3879,271.3836,88.6927,-1.0635e-05,-2.2e-06,0.0,0 STARLINK-5480,1 55664U 23021AN  24033.89423527 -.00000220  00000-0 -10635-4 0  9991,2 55664  69.9987 295.3879 0003455 271.3836  88.6927 14.98329334 54573,6950.195,96.107,574.461,569.659,0.0
55664.0,STARLINK-5480,PAYLOAD,2024-02-03 03:52:16,14.98299636,0.0003059,69.9989,294.7145,278.8216,81.2596,-0.00032358,-3.949e-05,0.0,0 STARLINK-5480,1 55664U 23021AN  24034.16130503 -.00003949  00000-0 -32358-3 0  9997,2 55664  69.9989 294.7145 0003059 278.8216  81.2596 14.98299636 54312,6950.287,96.109,574.278,570.026,0.0
55664.0,STARLINK-5480,PAYLOAD,2024-02-03 19:53:36,14.98311238,0.0003192,70.0005,293.0345,261.2861,98.7937,-0.00012291,-1.559e-05,0.0,0 STARLINK-5480,1 55664U 23021AN  24034.82889850 -.00001559  00000-0 -12291-3 0  9995,2 55664  70.0005 293.0345 0003192 261.2861  98.7937 14.98311238 54414,6950.251,96.108,574.334,569.897,0.0
55664.0,STARLINK-5480,PAYLOAD,2024-02-03 21:29:45,14.9831097,0.0003021,70.0007,292.8663,268.8209,91.2604,-0.00011644,-1.481e-05,0.0,0 STARLINK-5480,1 55664U 23021AN  24034.89566047 -.00001481  00000-0 -11644-3 0  9997,2 55664  70.0007 292.8663 0003021 268.8209  91.2604 14.98310970 54721,6950.252,96.108,574.216,570.017,0.0
55664.0,STARLINK-5480,PAYLOAD,2024-02-04 02:18:09,14.98314979,0.0002284,70.0013,292.3589,261.485,98.605,-0.00010357,-1.328e-05,0.0,0 STARLINK-5480,1 55664U 23021AN  24035.09594025 -.00001328  00000-0 -10357-3 0  9997,2 55664  70.0013 292.3589 0002284 261.4850  98.6050 14.98314979 54450,6950.239,96.108,573.692,570.517,0.0
55664.0,STARLINK-5480,PAYLOAD,2024-02-04 19:55:36,14.98345474,0.0003059,69.9996,290.5044,267.5853,92.4956,-0.00015683,-1.965e-05,0.0,0 STARLINK-5480,1 55664U 23021AN  24035.83028269 -.00001965  00000-0 -15683-3 0  9995,2 55664  69.9996 290.5044 0003059 267.5853  92.4956 14.98345474 54567,6950.145,96.106,574.136,569.884,0.0
55664.0,STARLINK-5480,PAYLOAD,2024-02-04 21:31:44,14.98345442,0.0003026,69.9996,290.336,267.0814,92.9998,-0.00016058,-2.009e-05,0.0,0 STARLINK-5480,1 55664U 23021AN  24035.89704225 -.00002009  00000-0 -16058-3 0  9991,2 55664  69.9996 290.3360 0003026 267.0814  92.9998 14.98345442 54872,6950.145,96.106,574.113,569.907,0.0
55664.0,STARLINK-5480,PAYLOAD,2024-02-05 10:20:49,14.98336871,0.0003183,69.9994,288.9907,292.7666,67.3156,0.00031226,3.635e-05,0.0,0 STARLINK-5480,1 55664U 23021AN  24036.43112427  .00003635  00000-0  31226-3 0  9997,2 55664  69.9994 288.9907 0003183 292.7666  67.3156 14.98336871 54951,6950.172,96.107,574.249,569.824,0.0
55664.0,STARLINK-5480,PAYLOAD,2024-02-05 19:57:37,14.98344337,0.0003129,70.0004,287.979,270.0385,90.0415,0.0004862,5.715e-05,0.0,0 STARLINK-5480,1 55664U 23021AN  24036.83168462  .00005715  00000-0  48620-3 0  9998,2 55664  70.0004 287.9790 0003129 270.0385  90.0415 14.98344337 54713,6950.149,96.106,574.188,569.839,0.0
55664.0,STARLINK-5480,PAYLOAD,2024-02-05 23:09:53,14.98351094,0.0003113,70.0009,287.6426,270.8187,89.2615,0.00060571,7.146e-05,0.0,0 STARLINK-5480,1 55664U 23021AN  24036.96520237  .00007146  00000-0  60571-3 0  9993,2 55664  70.0009 287.6426 0003113 270.8187  89.2615 14.98351094 55038,6950.128,96.106,574.156,569.829,0.0
55664.0,STARLINK-5480,PAYLOAD,2024-02-06 02:22:09,14.98359951,0.0003057,70.0011,287.306,271.1799,88.901,0.00077832,9.213e-05,0.0,0 STARLINK-5480,1 55664U 23021AN  24037.09871877  .00009213  00000-0  77832-3 0  9992,2 55664  70.0011 287.3060 0003057 271.1799  88.9010 14.98359951 54755,6950.1,96.105,574.09,569.841,0.0
55664.0,STARLINK-5480,PAYLOAD,2024-02-06 19:59:37,14.98343467,0.0002527,70.0023,285.4553,266.928,93.159,0.00010392,1.148e-05,0.0,0 STARLINK-5480,1 55664U 23021AN  24037.83307718  .00001148  00000-0  10392-3 0  9999,2 55664  70.0023 285.4553 0002527 266.9280  93.1590 14.98343467 54860,6950.151,96.106,573.773,570.26,0.0
55664.0,STARLINK-5480,PAYLOAD,2024-02-06 21:35:45,14.98342076,0.0002563,70.0014,285.2869,265.9436,94.143,0.00010251,1.131e-05,0.0,0 STARLINK-5480,1 55664U 23021AN  24037.89983791  .00001131  00000-0  10251-3 0  9992,2 55664  70.0014 285.2869 0002563 265.9436  94.1430 14.98342076 55174,6950.156,96.106,573.802,570.239,0.0
55664.0,STARLINK-5480,PAYLOAD,2024-02-07 02:24:10,14.98342314,0.0002795,70.001,284.7807,271.1386,88.9453,6.027e-05,6.26e-06,0.0,0 STARLINK-5480,1 55664U 23021AN  24038.10011579  .00000626  00000-0  60270-4 0  9998,2 55664  70.0010 284.7807 0002795 271.1386  88.9453 14.98342314 55201,6950.155,96.106,573.962,570.077,0.0
55664.0,STARLINK-5480,PAYLOAD,2024-02-07 20:01:38,14.98337778,0.0002795,69.9997,282.9306,262.1738,97.9104,-5.4899e-05,-7.48e-06,0.0,0 STARLINK-5480,1 55664U 23021AN  24038.83447792 -.00000748  00000-0 -54899-4 0  9995,2 55664  69.9997 282.9306 0002795 262.1738  97.9104 14.98337778 55017,6950.169,96.107,573.976,570.091,0.0
55664.0,STARLINK-5480,PAYLOAD,2024-02-07 21:37:46,14.98336863,0.0002821,69.9997,282.7627,261.9798,98.1041,-5.9328e-05,-8.01e-06,0.0,0 STARLINK-5480,1 55664U 23021AN  24038.90123798 -.00000801  00000-0 -59328-4 0  9992,2 55664  69.9997 282.7627 0002821 261.9798  98.1041 14.98336863 55325,6950.172,96.107,573.997,570.076,0.0
